{"type": "FeatureCollection", "features": [{"type": "Feature", "properties": {"norad_id": 25590, "name": "COSMOS 2361", "group": "musson", "lat": -15.676097926887296, "lon": -11.87085102961742, "alt_km": 979.9451557045659, "timestamp": "2025-12-04T13:52:00.712425+00:00", "meta": {"OBJECT_NAME": "COSMOS 2361", "OBJECT_ID": "1998-076A", "EPOCH": "2025-12-04T03:46:53.901984", "MEAN_MOTION": 13.73216093, "ECCENTRICITY": 0.00301484, "INCLINATION": 82.9341, "RA_OF_ASC_NODE": 350.4345, "ARG_OF_PERICENTER": 290.5381, "MEAN_ANOMALY": 137.2839, "EPHEMERIS_TYPE": 0, "CLASSIFICATION_TYPE": "U", "NORAD_CAT_ID": 25590, "ELEMENT_SET_NO": 999, "REV_AT_EPOCH": 34993, "BSTAR": 9.2888965e-05, "MEAN_MOTION_DOT": 1.01e-06, "MEAN_MOTION_DDOT": 0}, "tle": {"line1": "1 25590U 98076A   25338.15756831  .00000101  00000+0  92889-4 0  9999", "line2": "2 25590  82.9341 350.4345 0030148 290.5381 137.2839 13.73216093349934"}}, "geometry": {"type": "Point", "coordinates": [-11.87085102961742, -15.676097926887296]}}, {"type": "Feature", "properties": {"norad_id": 26818, "name": "COSMOS 2378", "group": "musson", "lat": 29.299113633429354, "lon": 9.771896184539377, "alt_km": 1005.5603351358513, "timestamp": "2025-12-04T13:52:00.712447+00:00", "meta": {"OBJECT_NAME": "COSMOS 2378", "OBJECT_ID": "2001-023A", "EPOCH": "2025-12-04T03:31:38.059392", "MEAN_MOTION": 13.74140966, "ECCENTRICITY": 0.00319506, "INCLINATION": 82.9279, "RA_OF_ASC_NODE": 6.0967, "ARG_OF_PERICENTER": 229.4062, "MEAN_ANOMALY": 190.1028, "EPHEMERIS_TYPE": 0, "CLASSIFICATION_TYPE": "U", "NORAD_CAT_ID": 26818, "ELEMENT_SET_NO": 999, "REV_AT_EPOCH": 22805, "BSTAR": 9.6677365e-05, "MEAN_MOTION_DOT": 1.06e-06, "MEAN_MOTION_DDOT": 0}, "tle": {"line1": "1 26818U 01023A   25338.14696828  .00000106  00000+0  96677-4 0  9991", "line2": "2 26818  82.9279   6.0967 0031950 229.4062 190.1028 13.74140966228054"}}, "geometry": {"type": "Point", "coordinates": [9.771896184539377, 29.299113633429354]}}, {"type": "Feature", "properties": {"norad_id": 27436, "name": "COSMOS 2389", "group": "musson", "lat": -27.0822139042366, "lon": 136.65578232543643, "alt_km": 1006.51506982304, "timestamp": "2025-12-04T13:52:00.712460+00:00", "meta": {"OBJECT_NAME": "COSMOS 2389", "OBJECT_ID": "2002-026A", "EPOCH": "2025-12-04T08:13:02.946144", "MEAN_MOTION": 13.75153316, "ECCENTRICITY": 0.00477652, "INCLINATION": 82.9495, "RA_OF_ASC_NODE": 313.2019, "ARG_OF_PERICENTER": 83.5513, "MEAN_ANOMALY": 38.5368, "EPHEMERIS_TYPE": 0, "CLASSIFICATION_TYPE": "U", "NORAD_CAT_ID": 27436, "ELEMENT_SET_NO": 999, "REV_AT_EPOCH": 18033, "BSTAR": 7.8384773e-05, "MEAN_MOTION_DOT": 9.1e-07, "MEAN_MOTION_DDOT": 0}, "tle": {"line1": "1 27436U 02026A   25338.34239521  .00000091  00000+0  78385-4 0  9996", "line2": "2 27436  82.9495 313.2019 0047765  83.5513  38.5368 13.75153316180337"}}, "geometry": {"type": "Point", "coordinates": [136.65578232543643, -27.0822139042366]}}, {"type": "Feature", "properties": {"norad_id": 27818, "name": "COSMOS 2398", "group": "musson", "lat": -60.3040892060109, "lon": 111.24953201353905, "alt_km": 1005.1805031486674, "timestamp": "2025-12-04T13:52:00.712472+00:00", "meta": {"OBJECT_NAME": "COSMOS 2398", "OBJECT_ID": "2003-023A", "EPOCH": "2025-12-04T06:30:56.105280", "MEAN_MOTION": 13.72384481, "ECCENTRICITY": 0.00322601, "INCLINATION": 82.9477, "RA_OF_ASC_NODE": 278.939, "ARG_OF_PERICENTER": 134.5424, "MEAN_ANOMALY": 33.6574, "EPHEMERIS_TYPE": 0, "CLASSIFICATION_TYPE": "U", "NORAD_CAT_ID": 27818, "ELEMENT_SET_NO": 999, "REV_AT_EPOCH": 12700, "BSTAR": 6.6665711e-05, "MEAN_MOTION_DOT": 7.6e-07, "MEAN_MOTION_DDOT": 0}, "tle": {"line1": "1 27818U 03023A   25338.27148270  .00000076  00000+0  66666-4 0  9992", "line2": "2 27818  82.9477 278.9390 0032260 134.5424  33.6574 13.72384481127008"}}, "geometry": {"type": "Point", "coordinates": [111.24953201353905, -60.3040892060109]}}, {"type": "Feature", "properties": {"norad_id": 28380, "name": "COSMOS 2407", "group": "musson", "lat": -39.018576882159614, "lon": -146.81041774197448, "alt_km": 996.4948593627987, "timestamp": "2025-12-04T13:52:00.712483+00:00", "meta": {"OBJECT_NAME": "COSMOS 2407", "OBJECT_ID": "2004-028A", "EPOCH": "2025-12-04T04:08:04.971264", "MEAN_MOTION": 13.76312221, "ECCENTRICITY": 0.0040515, "INCLINATION": 82.9613, "RA_OF_ASC_NODE": 219.2354, "ARG_OF_PERICENTER": 78.0751, "MEAN_ANOMALY": 35.0272, "EPHEMERIS_TYPE": 0, "CLASSIFICATION_TYPE": "U", "NORAD_CAT_ID": 28380, "ELEMENT_SET_NO": 999, "REV_AT_EPOCH": 7305, "BSTAR": 0.00010845447, "MEAN_MOTION_DOT": 1.22e-06, "MEAN_MOTION_DDOT": 0}, "tle": {"line1": "1 28380U 04028A   25338.17227976  .00000122  00000+0  10845-3 0  9992", "line2": "2 28380  82.9613 219.2354 0040515  78.0751  35.0272 13.76312221 73053"}}, "geometry": {"type": "Point", "coordinates": [-146.81041774197448, -39.018576882159614]}}, {"type": "Feature", "properties": {"norad_id": 28521, "name": "COSMOS 2414", "group": "musson", "lat": -64.10598953011171, "lon": 25.600154831327693, "alt_km": 939.1751337732794, "timestamp": "2025-12-04T13:52:00.712494+00:00", "meta": {"OBJECT_NAME": "COSMOS 2414", "OBJECT_ID": "2005-002A", "EPOCH": "2025-12-04T02:18:41.717088", "MEAN_MOTION": 13.87901271, "ECCENTRICITY": 0.00403607, "INCLINATION": 82.9499, "RA_OF_ASC_NODE": 191.1955, "ARG_OF_PERICENTER": 163.9707, "MEAN_ANOMALY": 196.2744, "EPHEMERIS_TYPE": 0, "CLASSIFICATION_TYPE": "U", "NORAD_CAT_ID": 28521, "ELEMENT_SET_NO": 999, "REV_AT_EPOCH": 5675, "BSTAR": 0.00010319171, "MEAN_MOTION_DOT": 1.39e-06, "MEAN_MOTION_DDOT": 0}, "tle": {"line1": "1 28521U 05002A   25338.09631617  .00000139  00000+0  10319-3 0  9998", "line2": "2 28521  82.9499 191.1955 0040360 163.9707 196.2744 13.87901271 56753"}}, "geometry": {"type": "Point", "coordinates": [25.600154831327693, -64.10598953011171]}}, {"type": "Feature", "properties": {"norad_id": 32052, "name": "COSMOS 2429", "group": "musson", "lat": 32.194199881291496, "lon": -6.224822153607096, "alt_km": 953.3329113548398, "timestamp": "2025-12-04T13:52:00.712504+00:00", "meta": {"OBJECT_NAME": "COSMOS 2429", "OBJECT_ID": "2007-038A", "EPOCH": "2025-12-04T06:43:31.388160", "MEAN_MOTION": 13.75148168, "ECCENTRICITY": 0.0039595, "INCLINATION": 82.9805, "RA_OF_ASC_NODE": 349.5456, "ARG_OF_PERICENTER": 60.8741, "MEAN_ANOMALY": 299.6369, "EPHEMERIS_TYPE": 0, "CLASSIFICATION_TYPE": "U", "NORAD_CAT_ID": 32052, "ELEMENT_SET_NO": 999, "REV_AT_EPOCH": 91486, "BSTAR": 7.7958251e-05, "MEAN_MOTION_DOT": 9.1e-07, "MEAN_MOTION_DDOT": 0}, "tle": {"line1": "1 32052U 07038A   25338.28022440  .00000091  00000+0  77958-4 0  9992", "line2": "2 32052  82.9805 349.5456 0039595  60.8741 299.6369 13.75148168914865"}}, "geometry": {"type": "Point", "coordinates": [-6.224822153607096, 32.194199881291496]}}, {"type": "Feature", "properties": {"norad_id": 35635, "name": "COSMOS 2454", "group": "musson", "lat": -54.87113397414923, "lon": 4.95380306003227, "alt_km": 947.3649265390386, "timestamp": "2025-12-04T13:52:00.712514+00:00", "meta": {"OBJECT_NAME": "COSMOS 2454", "OBJECT_ID": "2009-039A", "EPOCH": "2025-12-04T06:39:36.744768", "MEAN_MOTION": 13.89927112, "ECCENTRICITY": 0.00204931, "INCLINATION": 82.9557, "RA_OF_ASC_NODE": 175.0596, "ARG_OF_PERICENTER": 96.3483, "MEAN_ANOMALY": 77.2751, "EPHEMERIS_TYPE": 0, "CLASSIFICATION_TYPE": "U", "NORAD_CAT_ID": 35635, "ELEMENT_SET_NO": 999, "REV_AT_EPOCH": 83032, "BSTAR": 9.7860074e-05, "MEAN_MOTION_DOT": 1.37e-06, "MEAN_MOTION_DDOT": 0}, "tle": {"line1": "1 35635U 09039A   25338.27750862  .00000137  00000+0  97860-4 0  9995", "line2": "2 35635  82.9557 175.0596 0020493  96.3483  77.2751 13.89927112830322"}}, "geometry": {"type": "Point", "coordinates": [4.95380306003227, -54.87113397414923]}}, {"type": "Feature", "properties": {"norad_id": 36519, "name": "COSMOS 2463", "group": "musson", "lat": 82.63500126618648, "lon": 139.82404068124058, "alt_km": 1006.1692241867904, "timestamp": "2025-12-04T13:52:00.712525+00:00", "meta": {"OBJECT_NAME": "COSMOS 2463", "OBJECT_ID": "2010-017A", "EPOCH": "2025-12-04T06:45:04.885920", "MEAN_MOTION": 13.71648059, "ECCENTRICITY": 0.00350797, "INCLINATION": 82.962, "RA_OF_ASC_NODE": 32.9279, "ARG_OF_PERICENTER": 312.3201, "MEAN_ANOMALY": 116.4095, "EPHEMERIS_TYPE": 0, "CLASSIFICATION_TYPE": "U", "NORAD_CAT_ID": 36519, "ELEMENT_SET_NO": 999, "REV_AT_EPOCH": 78121, "BSTAR": 9.888716e-05, "MEAN_MOTION_DOT": 1.04e-06, "MEAN_MOTION_DDOT": 0}, "tle": {"line1": "1 36519U 10017A   25338.28130655  .00000104  00000+0  98887-4 0  9992", "line2": "2 36519  82.9620  32.9279 0035079 312.3201 116.4095 13.71648059781210"}}, "geometry": {"type": "Point", "coordinates": [139.82404068124058, 82.63500126618648]}}]}